SL-14 R/B               
1 20262U 89080C   25276.08842486  .00000474  00000+0  13854-3 0  9997
2 20262  82.5874 274.3783 1230463 184.9525 173.8402 12.50355001640451
DELTA 1 R/B             
1 20323U 89089B   25276.07082423  .00000897  00000+0  23161-3 0  9991
2 20323  97.0853 143.4788 0067550 260.5536  98.8022 14.50486154872889
ARIANE 40 R/B           
1 20443U 90005H   25276.13081242  .00000789  00000+0  26545-3 0  9998
2 20443  98.3345 336.2693 0009284 324.5094  35.5476 14.39718644870135
DELTA 2 R/B(1)          
1 20453U 90008B   25276.24590968  .00056445  00000+0  10684-2 0  9990
2 20453  35.6076 113.5982 0123760 257.5997 101.0858 15.39235850901740
COSMOS 2058             
1 20465U 90010A   25276.25340803  .00009366  00000+0  57864-3 0  9990
2 20465  82.4753 202.3159 0009922 146.6104 213.5753 15.09713482918479
SL-14 R/B               
1 20466U 90010B   25276.32426438  .00001357  00000+0  16210-3 0  9990
2 20466  82.5019  55.1576 0021383  98.0608 262.3034 14.83369684905154
SL-14 R/B               
1 20511U 90018B   25276.25822372  .00001224  00000+0  15135-3 0  9996
2 20511  82.5253  10.2317 0015062 248.2689 111.6922 14.81950375899262
HST                     
1 20580U 90037B   25275.63604022  .00014602  00000+0  53183-3 0  9993
2 20580  28.4692  35.9607 0002420 158.0119 202.0580 15.26677300749117
SL-16 R/B               
1 20625U 90046B   25276.26501365 -.00000127  00000+0 -40698-4 0  9996
2 20625  70.9973 268.5234 0014565 193.7579 166.3149 14.14982769826124
COSMOS 2084             
1 20663U 90055A   25276.05710822  .00005757  00000+0  41639-3 0  9992
2 20663  62.7901 152.7145 0043950 166.2691 193.9616 15.04344882912591
SL-6 R/B(2)             
1 20666U 90055D   25275.70299145  .00006346  00000+0  48841-3 0  9993
2 20666  62.7833  70.6887 0011992 241.1501 118.8394 15.02549757914444
SL-8 R/B                
1 20775U 90078B   25276.27373737  .00058350  00000+0  18590-2 0  9991
2 20775  82.9086  32.1653 0387948 180.9608 179.0915 14.82116169785929
SL-8 R/B                
1 21088U 91006B   25276.07340787  .00000063  00000+0  47730-4 0  9996
2 21088  82.9383 287.2954 0023821 115.2839 299.2365 13.77471171742374
OKEAN-3                 
1 21397U 91039A   25276.08171901  .00006257  00000+0  45663-3 0  9999
2 21397  82.5164 129.4064 0015186 142.5623 217.6664 15.03443202841346
COSMOS 2151             
1 21422U 91042A   25276.28871439  .00005122  00000+0  41723-3 0  9990
2 21422  82.4957 235.3626 0010986 225.2622 134.7709 14.99280189839608
SL-14 R/B               
1 21423U 91042B   25276.27862882  .00001119  00000+0  13900-3 0  9990
2 21423  82.4969   7.7895 0018054  42.4199 317.8406 14.81648499829760
ERS-1                   
1 21574U 91050A   25276.31625101  .00000921  00000+0  31003-3 0  9996
2 21574  98.7946 285.5913 0031161 310.5632  49.2843 14.39284725793092
ARIANE 40 R/B           
1 21610U 91050F   25276.18651848  .00000970  00000+0  30385-3 0  9995
2 21610  98.2275 329.1255 0003222 169.1539 190.9722 14.42725968796285
INTERCOSMOS 25          
1 21819U 91086A   25276.28623951  .00003434  00000+0  66853-3 0  9997
2 21819  82.6057  45.1321 1489287  96.1516 281.0681 12.11454365477628
SL-8 R/B                
1 21876U 92008B   25276.28755955  .00000120  00000+0  10815-3 0  9991
2 21876  82.9306  24.8324 0034074 212.4080 205.5782 13.75941441687775
SL-8 R/B                
1 21938U 92020B   25276.06412747  .00000055  00000+0  40776-4 0  9996
2 21938  82.9259 270.8120 0029547  20.6588  39.7249 13.75518608679466
USA 81                  
1 21949U 92023A   25276.26518133  .00000540  00000+0  19285-3 0  9998
2 21949  85.0089 222.2059 0002225 109.1247 251.0186 14.32286899 72255
COSMOS 2219             
1 22219U 92076A   25276.26795781 -.00000147  00000+0 -52475-4 0  9997
2 22219  71.0624 347.1466 0015558  78.6964 281.5906 14.14047606696121
SL-16 R/B               
1 22220U 92076B   25276.13581770 -.00000100  00000+0 -25841-4 0  9992
2 22220  70.9998 160.2540 0013978 326.7256 194.7665 14.16823251699510
COSMOS 2221             
1 22236U 92080A   25275.89655757  .00004885  00000+0  44017-3 0  9990
2 22236  82.5018  70.0964 0014739   8.5906 351.5565 14.95317427757203
SL-16 R/B               
1 22285U 92093B   25276.28465042  .00000233  00000+0  14385-3 0  9996
2 22285  71.0229 334.6962 0005109 213.1186 146.9618 14.15411751690888
COSMOS 2228             
1 22286U 92094A   25276.28192255  .00006076  00000+0  53397-3 0  9998
2 22286  82.5208  27.9120 0019582 110.8445 249.4877 14.96257168752516
SL-16 R/B               
1 22566U 93016B   25276.16802272 -.00000027  00000+0  10435-4 0  9996
2 22566  71.0075 186.0174 0011367 213.4656 146.5749 14.15269335679888
COSMOS 2242             
1 22626U 93024A   25276.26575173  .00006289  00000+0  56178-3 0  9998
2 22626  82.5179  57.1637 0017894 113.0070 247.3041 14.95654131756853
SL-16 R/B               
1 22803U 93059B   25276.29079553  .00000315  00000+0  17975-3 0  9993
2 22803  70.9926 343.0448 0014818  89.8565 270.4257 14.17195837657235
ARIANE 40 R/B           
1 22830U 93061H   25276.22445520  .00000680  00000+0  26572-3 0  9998
2 22830  98.5163 343.0086 0011269  36.1774 324.0171 14.32728299671559
COSMOS 2278             
1 23087U 94023A   25276.09315726  .00000365  00000+0  21547-3 0  9998
2 23087  71.0533 144.8103 0010958 270.2402  89.7465 14.14329817622528
SL-16 R/B               
1 23088U 94023B   25275.71710503 -.00000130  00000+0 -42587-4 0  9999
2 23088  71.0014  42.6339 0003952 216.6853 143.4000 14.14984372623740
SL-16 R/B               
1 23343U 94074B   25276.12192064  .00001190  00000+0  16712-3 0  9996
2 23343  97.7305 308.1956 0007144  26.4080  34.1626 14.79169384663959
SL-16 R/B               
1 23405U 94077B   25276.25501962  .00000199  00000+0  12602-3 0  9995
2 23405  70.9832 323.6975 0001919 345.6861  14.4207 14.15532236593954
ARIANE 40+ R/B          
1 23561U 95021B   25276.19216829  .00000849  00000+0  28568-3 0  9996
2 23561  98.4734 344.6059 0005677 249.8932 168.0325 14.39614724596586
SL-16 R/B               
1 23705U 95058B   25276.11285900  .00000334  00000+0  19513-3 0  9993
2 23705  71.0210 151.0819 0012832 350.0823  10.0044 14.15468056545555
SL-16 R/B               
1 24298U 96051B   25276.09130932 -.00000022  00000+0  14667-4 0  9997
2 24298  70.7603 148.8159 0015215 356.4082   3.6925 14.12393806499394
ORBVIEW 2 (SEASTAR)     
1 24883U 97037A   25276.30130197  .00000864  00000+0  31760-3 0  9994
2 24883  98.8414  71.6255 0002744 143.3312 216.8060 14.35336052485890
SL-16 R/B               
1 25400U 98043G   25276.28233140  .00000251  00000+0  12377-3 0  9990
2 25400  98.7987 223.7530 0010903 108.7534 251.4830 14.25998992416556
SL-16 R/B               
1 25407U 98045B   25276.05979658  .00000335  00000+0  19350-3 0  9996
2 25407  71.0107 153.0616 0009664 266.6971  93.3047 14.16156909404781
ISS (ZARYA)             
1 25544U 98067A   25276.49892030  .00013095  00000+0  23997-3 0  9997
2 25544  51.6325 130.2428 0001007 193.4972 166.5990 15.49648180531963
CZ-4B R/B               
1 25732U 99025C   25276.11959352  .00000228  00000+0  13084-3 0  9991
2 25732  98.6885 318.9369 0038195  78.5038 297.0302 14.18218401365839
OKEAN-O                 
1 25860U 99039A   25276.07438008  .00001782  00000+0  24253-3 0  9999
2 25860  97.9714 332.3527 0001923 102.1363 258.0065 14.79986195411074
SL-16 R/B               
1 25861U 99039B   25276.07055973  .00001556  00000+0  20532-3 0  9991
2 25861  98.0236 330.1797 0015922  52.3003 307.9650 14.81436904413529
DELTA 2 R/B             
1 25876U 99041E   25276.24899297  .00001901  00000+0  34447-3 0  9998
2 25876  51.7639 209.7492 0504693 243.9080 110.9088 14.11174740340797
HELIOS 1B               
1 25977U 99064A   25276.28634591  .00004143  00000+0  47049-3 0  9996
2 25977  98.1783 168.8793 0001150 133.0522 227.0789 14.86865971661860
TERRA                   
1 25994U 99068A   25276.32537132  .00001329  00000+0  28110-3 0  9998
2 25994  97.9860 330.5525 0001713 359.6094  68.8809 14.60832937372106
SL-16 R/B               
1 26070U 00006B   25275.82246786  .00000405  00000+0  23033-3 0  9997
2 26070  71.0016  69.7656 0014706  57.7922 302.4625 14.15791784326214
TITAN 4B R/B            
1 26474U 00047B   25276.18912985  .00007414  00000+0  47762-3 0  9993
2 26474  67.9890 122.8778 0046401 222.8064 136.9468 15.07956004369156
ENVISAT                 
1 27386U 02009A   25276.34702499  .00000412  00000+0  14733-3 0  9994
2 27386  98.3468 228.9184 0001298  89.4802  67.4704 14.38960076236543
IDEFIX & ARIANE 42P R/B 
1 27422U 02021B   25276.30808001  .00000864  00000+0  34564-3 0  9996
2 27422  98.5666 211.9575 0010763 294.4640  65.5420 14.30873047221515
AQUA                    
1 27424U 02022A   25276.33633370  .00002784  00000+0  57053-3 0  9998
2 27424  98.3908 236.1272 0002067  75.5620  82.3979 14.61556275245743
CZ-4B R/B               
1 27432U 02024C   25276.12162066  .00000180  00000+0  11531-3 0  9994
2 27432  98.9116 325.0989 0051174 110.0800 304.7323 14.14507329206969
MIDORI II (ADEOS-II)    
1 27597U 02056A   25276.28489529  .00000815  00000+0  33925-3 0  9990
2 27597  98.7502 228.9187 0002194  90.0719 270.0714 14.29132029187811
H-2A R/B                
1 27601U 02056E   25275.91093944  .00000832  00000+0  30745-3 0  9993
2 27601  98.2935 237.5324 0069071 272.0098 150.5984 14.33600663191501
CZ-4B R/B               
1 28059U 03049C   25275.96332164  .00001245  00000+0  29776-3 0  9990
2 28059  98.6724 259.8741 0048266 354.6169   5.4502 14.54800970163664
CZ-2C R/B               
1 28222U 04012C   25276.15911691  .00058918  00000+0  10525-2 0  9993
2 28222  97.7546 323.2464 0021196 163.7086 196.4850 15.49592088179775
SL-16 R/B               
1 28353U 04021B   25276.26141208  .00000449  00000+0  25840-3 0  9992
2 28353  71.0010 202.8603 0007154 275.9775  84.0532 14.14569407100578
